{
  "type": "FeatureCollection",
  "features": [
    {
      "type": "Feature",
      "properties": {
        "norad_id": 37530,
        "name": "COSMOS 2251 DEB",
        "group": "cosmos-2251-debris",
        "lat": -0.47689209286248246,
        "lon": -17.25378454962037,
        "alt_km": 767.100372010671,
        "timestamp": "2025-12-07T16:44:04.310666+00:00",
        "meta_object_name": "COSMOS 2251 DEB",
        "meta_object_id": "1993-036BNK",
        "meta_epoch": "2025-11-30T19:50:14.646624",
        "meta_mean_motion": 14.34478642,
        "meta_eccentricity": 0.00255427,
        "meta_inclination": 74.0356,
        "meta_ra_of_asc_node": 355.4602,
        "meta_arg_of_pericenter": 61.4891,
        "meta_mean_anomaly": 111.2815,
        "meta_ephemeris_type": 0,
        "meta_classification_type": "U",
        "meta_norad_cat_id": 37530,
        "meta_element_set_no": 999,
        "meta_rev_at_epoch": 85061,
        "meta_bstar": 0.00021143929,
        "meta_mean_motion_dot": 5.72e-06,
        "meta_mean_motion_ddot": 0,
        "tle_line1": "1 37530U 93036BNK 25334.82655841  .00000572  00000+0  21144-3 0  9993",
        "tle_line2": "2 37530  74.0356 355.4602 0025542  61.4891 111.2815 14.34478642850619"
      },
      "geometry": {
        "type": "Point",
        "coordinates": [
          -17.25378454962037,
          -0.47689209286248246
        ]
      }
    },
    {
      "type": "Feature",
      "properties": {
        "norad_id": 37532,
        "name": "COSMOS 2251 DEB",
        "group": "cosmos-2251-debris",
        "lat": -3.1299374306260015,
        "lon": -135.83085027558516,
        "alt_km": 743.9156433040725,
        "timestamp": "2025-12-07T16:44:04.310676+00:00",
        "meta_object_name": "COSMOS 2251 DEB",
        "meta_object_id": "1993-036BNM",
        "meta_epoch": "2025-12-06T22:29:48.865632",
        "meta_mean_motion": 14.42393869,
        "meta_eccentricity": 0.0015812,
        "meta_inclination": 74.0505,
        "meta_ra_of_asc_node": 226.4729,
        "meta_arg_of_pericenter": 327.7408,
        "meta_mean_anomaly": 44.7471,
        "meta_ephemeris_type": 0,
        "meta_classification_type": "U",
        "meta_norad_cat_id": 37532,
        "meta_element_set_no": 999,
        "meta_rev_at_epoch": 84832,
        "meta_bstar": 0.00040433426,
        "meta_mean_motion_dot": 1.313e-05,
        "meta_mean_motion_ddot": 0,
        "tle_line1": "1 37532U 93036BNM 25340.93737113  .00001313  00000+0  40433-3 0  9993",
        "tle_line2": "2 37532  74.0505 226.4729 0015812 327.7408  44.7471 14.42393869848324"
      },
      "geometry": {
        "type": "Point",
        "coordinates": [
          -135.83085027558516,
          -3.1299374306260015
        ]
      }
    },
    {
      "type": "Feature",
      "properties": {
        "norad_id": 37533,
        "name": "COSMOS 2251 DEB",
        "group": "cosmos-2251-debris",
        "lat": -72.25904418924108,
        "lon": 137.47224813633414,
        "alt_km": 750.9275886638861,
        "timestamp": "2025-12-07T16:44:04.310686+00:00",
        "meta_object_name": "COSMOS 2251 DEB",
        "meta_object_id": "1993-036BNN",
        "meta_epoch": "2025-12-06T08:48:45.576288",
        "meta_mean_motion": 14.12120184,
        "meta_eccentricity": 0.0158299,
        "meta_inclination": 74.0693,
        "meta_ra_of_asc_node": 203.0372,
        "meta_arg_of_pericenter": 261.0983,
        "meta_mean_anomaly": 97.2209,
        "meta_ephemeris_type": 0,
        "meta_classification_type": "U",
        "meta_norad_cat_id": 37533,
        "meta_element_set_no": 999,
        "meta_rev_at_epoch": 62831,
        "meta_bstar": 0.0023004993,
        "meta_mean_motion_dot": 4.727e-05,
        "meta_mean_motion_ddot": 0,
        "tle_line1": "1 37533U 93036BNN 25340.36719417  .00004727  00000+0  23005-2 0  9995",
        "tle_line2": "2 37533  74.0693 203.0372 0158299 261.0983  97.2209 14.12120184628315"
      },
      "geometry": {
        "type": "Point",
        "coordinates": [
          137.47224813633414,
          -72.25904418924108
        ]
      }
    },
    {
      "type": "Feature",
      "properties": {
        "norad_id": 37535,
        "name": "COSMOS 2251 DEB",
        "group": "cosmos-2251-debris",
        "lat": 71.01814553925956,
        "lon": 139.49689493335242,
        "alt_km": 706.9584609132326,
        "timestamp": "2025-12-07T16:44:04.310696+00:00",
        "meta_object_name": "COSMOS 2251 DEB",
        "meta_object_id": "1993-036BNQ",
        "meta_epoch": "2025-12-06T17:53:41.072064",
        "meta_mean_motion": 14.58386464,
        "meta_eccentricity": 0.00280664,
        "meta_inclination": 74.0246,
        "meta_ra_of_asc_node": 84.9186,
        "meta_arg_of_pericenter": 224.6272,
        "meta_mean_anomaly": 260.8539,
        "meta_ephemeris_type": 0,
        "meta_classification_type": "U",
        "meta_norad_cat_id": 37535,
        "meta_element_set_no": 999,
        "meta_rev_at_epoch": 85237,
        "meta_bstar": 0.0015242667,
        "meta_mean_motion_dot": 7.078e-05,
        "meta_mean_motion_ddot": 0,
        "tle_line1": "1 37535U 93036BNQ 25340.74561426  .00007078  00000+0  15243-2 0  9991",
        "tle_line2": "2 37535  74.0246  84.9186 0028066 224.6272 260.8539 14.58386464852378"
      },
      "geometry": {
        "type": "Point",
        "coordinates": [
          139.49689493335242,
          71.01814553925956
        ]
      }
    },
    {
      "type": "Feature",
      "properties": {
        "norad_id": 37537,
        "name": "COSMOS 2251 DEB",
        "group": "cosmos-2251-debris",
        "lat": -64.59743930748114,
        "lon": -122.71569830194515,
        "alt_km": 794.6227034627791,
        "timestamp": "2025-12-07T16:44:04.310707+00:00",
        "meta_object_name": "COSMOS 2251 DEB",
        "meta_object_id": "1993-036BNS",
        "meta_epoch": "2025-12-04T13:53:52.711584",
        "meta_mean_motion": 14.3747249,
        "meta_eccentricity": 0.0050092,
        "meta_inclination": 74.012,
        "meta_ra_of_asc_node": 280.1661,
        "meta_arg_of_pericenter": 62.5345,
        "meta_mean_anomaly": 298.0888,
        "meta_ephemeris_type": 0,
        "meta_classification_type": "U",
        "meta_norad_cat_id": 37537,
        "meta_element_set_no": 999,
        "meta_rev_at_epoch": 84916,
        "meta_bstar": 0.00043114,
        "meta_mean_motion_dot": 1.283e-05,
        "meta_mean_motion_ddot": 0,
        "tle_line1": "1 37537U 93036BNS 25338.57908231  .00001283  00000+0  43114-3 0  9991",
        "tle_line2": "2 37537  74.0120 280.1661 0050092  62.5345 298.0888 14.37472490849168"
      },
      "geometry": {
        "type": "Point",
        "coordinates": [
          -122.71569830194515,
          -64.59743930748114
        ]
      }
    },
    {
      "type": "Feature",
      "properties": {
        "norad_id": 37546,
        "name": "COSMOS 2251 DEB",
        "group": "cosmos-2251-debris",
        "lat": -46.10271728711461,
        "lon": 90.62606975794633,
        "alt_km": 639.4954481116774,
        "timestamp": "2025-12-07T16:44:04.310717+00:00",
        "meta_object_name": "COSMOS 2251 DEB",
        "meta_object_id": "1993-036BPB",
        "meta_epoch": "2025-12-06T08:30:40.462272",
        "meta_mean_motion": 14.80108017,
        "meta_eccentricity": 0.0006314,
        "meta_inclination": 74.0211,
        "meta_ra_of_asc_node": 110.5973,
        "meta_arg_of_pericenter": 132.9797,
        "meta_mean_anomaly": 227.191,
        "meta_ephemeris_type": 0,
        "meta_classification_type": "U",
        "meta_norad_cat_id": 37546,
        "meta_element_set_no": 999,
        "meta_rev_at_epoch": 65793,
        "meta_bstar": 0.0052760355,
        "meta_mean_motion_dot": 0.00040242,
        "meta_mean_motion_ddot": 0,
        "tle_line1": "1 37546U 93036BPB 25340.35463498  .00040242  00000+0  52760-2 0  9995",
        "tle_line2": "2 37546  74.0211 110.5973 0006314 132.9797 227.1910 14.80108017657932"
      },
      "geometry": {
        "type": "Point",
        "coordinates": [
          90.62606975794633,
          -46.10271728711461
        ]
      }
    },
    {
      "type": "Feature",
      "properties": {
        "norad_id": 37959,
        "name": "COSMOS 2251 DEB",
        "group": "cosmos-2251-debris",
        "lat": -8.35689238735865,
        "lon": -111.03085945263595,
        "alt_km": 664.5819760441045,
        "timestamp": "2025-12-07T16:44:04.310727+00:00",
        "meta_object_name": "COSMOS 2251 DEB",
        "meta_object_id": "1993-036BPJ",
        "meta_epoch": "2025-12-05T12:54:50.321088",
        "meta_mean_motion": 14.58065302,
        "meta_eccentricity": 0.00583163,
        "meta_inclination": 74.0122,
        "meta_ra_of_asc_node": 70.6673,
        "meta_arg_of_pericenter": 214.84,
        "meta_mean_anomaly": 164.8354,
        "meta_ephemeris_type": 0,
        "meta_classification_type": "U",
        "meta_norad_cat_id": 37959,
        "meta_element_set_no": 999,
        "meta_rev_at_epoch": 80022,
        "meta_bstar": 0.0016432298,
        "meta_mean_motion_dot": 7.718e-05,
        "meta_mean_motion_ddot": 0,
        "tle_line1": "1 37959U 93036BPJ 25339.53808242  .00007718  00000+0  16432-2 0  9998",
        "tle_line2": "2 37959  74.0122  70.6673 0058316 214.8400 164.8354 14.58065302800229"
      },
      "geometry": {
        "type": "Point",
        "coordinates": [
          -111.03085945263595,
          -8.35689238735865
        ]
      }
    }
  ]
}